NORAD_CAT_ID,OBJECT_NAME,OBJECT_TYPE,EPOCH,MEAN_MOTION,ECCENTRICITY,INCLINATION,RA_OF_ASC_NODE,ARG_OF_PERICENTER,MEAN_ANOMALY,BSTAR,MEAN_MOTION_DOT,MEAN_MOTION_DDOT,TLE_LINE0,TLE_LINE1,TLE_LINE2,SEMIMAJOR_AXIS,PERIOD,APOGEE,PERIGEE,DECAYED
50813.0,STARLINK-3349,PAYLOAD,2022-08-10 13:04:57,15.08827486,0.0001693,53.2174,267.1341,59.0585,301.0573,-0.00015456,-2.746e-05,0.0,0 STARLINK-3349,1 50813U 22001L   22222.54511059 -.00002746  00000-0 -15456-3 0  9997,2 50813  53.2174 267.1341 0001693  59.0585 301.0573 15.08827486 33213,6917.919,95.438,540.955,538.612,0.0
50813.0,STARLINK-3349,PAYLOAD,2022-08-10 14:40:20,15.08830218,0.0001692,53.2171,266.8365,51.7104,308.404,-0.0001906999999999,-3.321e-05,0.0,0 STARLINK-3349,1 50813U 22001L   22222.61135022 -.00003321  00000-0 -19070-3 0  9993,2 50813  53.2171 266.8365 0001692  51.7104 308.4040 15.08830218 33225,6917.91,95.438,540.946,538.605,0.0
50813.0,STARLINK-3349,PAYLOAD,2022-08-11 12:55:44,15.08826434,0.000166,53.2169,262.6734,51.221,308.893,-6.3329e-05,-1.295e-05,0.0,0 STARLINK-3349,1 50813U 22001L   22223.53871425 -.00001295  00000-0 -63329-4 0  9994,2 50813  53.2169 262.6734 0001660  51.2210 308.8930 15.08826434 33366,6917.922,95.438,540.935,538.638,0.0
50813.0,STARLINK-3349,PAYLOAD,2022-08-11 14:31:08,15.08827208,0.0001659,53.2168,262.376,50.952,309.1620000000001,-5.5957e-05,-1.178e-05,0.0,0 STARLINK-3349,1 50813U 22001L   22223.60495410 -.00001178  00000-0 -55957-4 0  9996,2 50813  53.2168 262.3760 0001659  50.9520 309.1620 15.08827208 34629,6917.919,95.438,540.932,538.637,0.0
50813.0,STARLINK-3349,PAYLOAD,2022-08-12 12:46:32,15.08823885,0.0001699999999999,53.2168,258.2129,51.7124,308.402,0.00011615,1.56e-05,0.0,0 STARLINK-3349,1 50813U 22001L   22224.53232082  .00001560  00000-0  11615-3 0  9998,2 50813  53.2168 258.2129 0001700  51.7124 308.4020 15.08823885 33518,6917.93,95.439,540.971,538.619,0.0
50813.0,STARLINK-3349,PAYLOAD,2022-08-12 19:08:05,15.08826777,0.0001714,53.2168,257.0234,51.6041,308.5105,0.00012996,1.7800000000000002e-05,0.0,0 STARLINK-3349,1 50813U 22001L   22224.79728125  .00001780  00000-0  12996-3 0  9991,2 50813  53.2168 257.0234 0001714  51.6041 308.5105 15.08826777 33556,6917.920999999999,95.438,540.972,538.6,0.0
50813.0,STARLINK-3349,PAYLOAD,2022-08-13 01:29:37,15.08829051,0.0001716,53.2168,255.8339,51.9077,308.207,0.00013209,1.814e-05,0.0,0 STARLINK-3349,1 50813U 22001L   22225.06224197  .00001814  00000-0  13209-3 0  9998,2 50813  53.2168 255.8339 0001716  51.9077 308.2070 15.08829051 34841,6917.9140000000025,95.438,540.966,538.592,0.0
50813.0,STARLINK-3349,PAYLOAD,2022-08-13 09:26:33,15.08832274,0.0001737,53.2168,254.3471,52.3218,307.7931,0.00011018,1.466e-05,0.0,0 STARLINK-3349,1 50813U 22001L   22225.39344298  .00001466  00000-0  11018-3 0  9998,2 50813  53.2168 254.3471 0001737  52.3218 307.7931 15.08832274 33645,6917.904,95.438,540.971,538.567,0.0
50813.0,STARLINK-3349,PAYLOAD,2022-08-13 14:12:42,15.08834651,0.0001749,53.2167,253.455,52.6309,307.4843,0.00012273,1.665e-05,0.0,0 STARLINK-3349,1 50813U 22001L   22225.59216196  .00001665  00000-0  12273-3 0  9990,2 50813  53.2167 253.4550 0001749  52.6309 307.4843 15.08834651 33672,6917.897,95.438,540.972,538.552,0.0
50813.0,STARLINK-3349,PAYLOAD,2022-08-14 10:52:43,15.08843585,0.000181,53.2168,249.5891,53.5064,306.6094,0.0001118,1.492e-05,0.0,0 STARLINK-3349,1 50813U 22001L   22226.45327758  .00001492  00000-0  11180-3 0  9997,2 50813  53.2168 249.5891 0001810  53.5064 306.6094 15.08843585 35053,6917.869000000002,95.437,540.987,538.482,0.0
50813.0,STARLINK-3349,PAYLOAD,2022-08-15 07:32:43,15.08851383,0.0001844,53.2169,245.7233,54.8487,305.2677,0.00010893,1.446e-05,0.0,0 STARLINK-3349,1 50813U 22001L   22227.31438895  .00001446  00000-0  10893-3 0  9997,2 50813  53.2169 245.7233 0001844  54.8487 305.2677 15.08851383 33934,6917.846,95.437,540.986,538.435,0.0
50813.0,STARLINK-3349,PAYLOAD,2022-08-15 18:40:24,15.08852762,0.0001919,53.2167,243.642,53.0595,307.0573,9.2537e-05,1.185e-05,0.0,0 STARLINK-3349,1 50813U 22001L   22227.77806545  .00001185  00000-0  92537-4 0  9994,2 50813  53.2167 243.6420 0001919  53.0595 307.0573 15.08852762 35255,6917.840999999999,95.437,541.034,538.379,0.0
50813.0,STARLINK-3349,PAYLOAD,2022-08-16 01:01:57,15.08848165,0.0001853,53.2169,242.4524,58.8288,301.2885,3.6187e-05,2.88e-06,0.0,0 STARLINK-3349,1 50813U 22001L   22228.04302816  .00000288  00000-0  36187-4 0  9999,2 50813  53.2169 242.4524 0001853  58.8288 301.2885 15.08848165 35296,6917.855,95.437,541.002,538.439,0.0
50813.0,STARLINK-3349,PAYLOAD,2022-08-16 07:23:30,15.08845261,0.0001794,53.2175,241.2628,62.0927,298.0247,-1.7694e-05,-5.700000000000001e-06,0.0,0 STARLINK-3349,1 50813U 22001L   22228.30799067 -.00000570  00000-0 -17694-4 0  9994,2 50813  53.2175 241.2628 0001794  62.0927 298.0247 15.08845261 34081,6917.864000000001,95.437,540.97,538.488,0.0
50813.0,STARLINK-3349,PAYLOAD,2022-08-17 05:38:53,15.08850248,0.0001903,53.2176,237.0997,60.4212,299.697,-6.642e-06,-3.94e-06,0.0,0 STARLINK-3349,1 50813U 22001L   22229.23534279 -.00000394  00000-0 -66420-5 0  9995,2 50813  53.2176 237.0997 0001903  60.4212 299.6970 15.08850248 35470,6917.849,95.437,541.031,538.398,0.0
50813.0,STARLINK-3349,PAYLOAD,2022-08-17 07:14:16,15.08849127,0.0001902,53.2175,236.8025,59.6822,300.4359,-1.4800000000000002e-05,-5.24e-06,0.0,0 STARLINK-3349,1 50813U 22001L   22229.30158330 -.00000524  00000-0 -14800-4 0  9992,2 50813  53.2175 236.8025 0001902  59.6822 300.4359 15.08849127 34233,6917.852,95.437,541.033,538.4019999999998,0.0
50813.0,STARLINK-3349,PAYLOAD,2022-08-18 05:29:41,15.08836804,0.0001875999999999,53.2169,232.6393,55.0211,305.0957,2.0877e-05,4.4e-07,0.0,0 STARLINK-3349,1 50813U 22001L   22230.22894702  .00000044  00000-0  20877-4 0  9991,2 50813  53.2169 232.6393 0001876  55.0211 305.0957 15.08836804 35627,6917.89,95.438,541.053,538.457,0.0
50813.0,STARLINK-3349,PAYLOAD,2022-08-18 10:15:50,15.08834801,0.0001885999999999,53.2164,231.7473,51.8812,308.235,-6.1913e-06,-3.87e-06,0.0,0 STARLINK-3349,1 50813U 22001L   22230.42766932 -.00000387  00000-0 -61913-5 0  9995,2 50813  53.2164 231.7473 0001886  51.8812 308.2350 15.08834801 34405,6917.896,95.438,541.066,538.457,0.0
50813.0,STARLINK-3349,PAYLOAD,2022-08-18 16:37:23,15.08836885,0.0001898,53.2164,230.5579,52.0709,308.0454,3.324e-06,-2.35e-06,0.0,0 STARLINK-3349,1 50813U 22001L   22230.69262803 -.00000235  00000-0  33240-5 0  9995,2 50813  53.2164 230.5579 0001898  52.0709 308.0454 15.08836885 34441,6917.89,95.438,541.068,538.442,0.0
50813.0,STARLINK-3349,PAYLOAD,2022-08-19 06:55:50,15.08842407,0.0001885,53.2164,227.8815,51.9532,308.163,1.6689000000000002e-05,-2.3e-07,0.0,0 STARLINK-3349,1 50813U 22001L   22231.28878416 -.00000023  00000-0  16689-4 0  9996,2 50813  53.2164 227.8815 0001885  51.9532 308.1630 15.08842407 34535,6917.873000000001,95.437,541.0419999999998,538.434,0.0
50813.0,STARLINK-3349,PAYLOAD,2022-08-20 05:11:15,15.08831152,0.0001902,53.2168,223.7183,51.7363,308.38,2.6801e-05,1.38e-06,0.0,0 STARLINK-3349,1 50813U 22001L   22232.21615174  .00000138  00000-0  26801-4 0  9993,2 50813  53.2168 223.7183 0001902  51.7363 308.3800 15.08831152 35922,6917.906999999997,95.438,541.0880000000002,538.457,0.0
50813.0,STARLINK-3349,PAYLOAD,2022-08-20 09:57:25,15.0882838,0.0001911999999999,53.2167,222.8262,50.9925,309.1237,-3.378600000000001e-07,-2.94e-06,0.0,0 STARLINK-3349,1 50813U 22001L   22232.41487531 -.00000294  00000-0 -33786-6 0  9996,2 50813  53.2167 222.8262 0001912  50.9925 309.1237 15.08828380 34702,6917.916,95.438,541.104,538.4580000000002,0.0
50813.0,STARLINK-3349,PAYLOAD,2022-08-20 16:18:57,15.08830306,0.0001924,53.2167,221.6366,51.3479,308.7685,2.0204e-05,3.3e-07,0.0,0 STARLINK-3349,1 50813U 22001L   22232.67983500  .00000033  00000-0  20204-4 0  9999,2 50813  53.2167 221.6366 0001924  51.3479 308.7685 15.08830306 34743,6917.91,95.438,541.106,538.444,0.0
50813.0,STARLINK-3349,PAYLOAD,2022-08-21 11:23:35,15.08837571,0.0001946,53.2168,218.0682,51.9403,308.1765,5.1888e-06,-2.06e-06,0.0,0 STARLINK-3349,1 50813U 22001L   22233.47471381 -.00000206  00000-0  51888-5 0  9993,2 50813  53.2168 218.0682 0001946  51.9403 308.1765 15.08837571 34869,6917.888000000001,95.438,541.099,538.4069999999998,0.0
50813.0,STARLINK-3349,PAYLOAD,2022-08-22 08:03:35,15.08837474,0.0001974,53.217,214.2026,52.732,307.3852,0.00010175,1.331e-05,0.0,0 STARLINK-3349,1 50813U 22001L   22234.33583168  .00001331  00000-0  10175-3 0  9997,2 50813  53.2170 214.2026 0001974  52.7320 307.3852 15.08837474 34994,6917.888000000001,95.438,541.119,538.388,0.0
50813.0,STARLINK-3349,PAYLOAD,2022-08-22 16:00:31,15.088402300000002,0.0001988,53.217,212.716,53.2627,306.8548,0.00010946,1.454e-05,0.0,0 STARLINK-3349,1 50813U 22001L   22234.66702991  .00001454  00000-0  10946-3 0  9992,2 50813  53.2170 212.7160 0001988  53.2627 306.8548 15.08840230 35044,6917.88,95.438,541.12,538.369,0.0
50813.0,STARLINK-3349,PAYLOAD,2022-08-23 07:54:23,15.08835408,0.0002053,53.2169,209.7432,50.7773,309.3402,4.3398e-07,-2.81e-06,0.0,0 STARLINK-3349,1 50813U 22001L   22235.32943565 -.00000281  00000-0  43398-6 0  9998,2 50813  53.2169 209.7432 0002053  50.7773 309.3402 15.08835408 35147,6917.894,95.438,541.18,538.339,0.0
50813.0,STARLINK-3349,PAYLOAD,2022-08-24 04:34:24,15.08836951,0.0002031,53.217,205.8773,52.1919,307.9257,-4.4024e-05,-9.89e-06,0.0,0 STARLINK-3349,1 50813U 22001L   22236.19055761 -.00000989  00000-0 -44024-4 0  9997,2 50813  53.2170 205.8773 0002031  52.1919 307.9257 15.08836951 35278,6917.89,95.438,541.16,538.35,0.0
50813.0,STARLINK-3349,PAYLOAD,2022-08-25 04:25:10,15.08842556,0.0002018,53.2167,201.417,51.5739,308.5434,-8.875e-06,-4.29e-06,0.0,0 STARLINK-3349,1 50813U 22001L   22237.18415261 -.00000429  00000-0 -88750-5 0  9996,2 50813  53.2167 201.4170 0002018  51.5739 308.5434 15.08842556 36672,6917.873000000001,95.437,541.134,538.342,0.0
